[{"OBJECT_NAME":"ONEWEB-0639","OBJECT_ID":"2023-029H","EPOCH":"2026-03-18T03:03:43.398432","MEAN_MOTION":13.19725371,"ECCENTRICITY":0.00025607,"INCLINATION":87.9216,"RA_OF_ASC_NODE":323.1256,"ARG_OF_PERICENTER":98.3969,"MEAN_ANOMALY":261.7454,"EPHEMERIS_TYPE":0,"CLASSIFICATION_TYPE":"U","NORAD_CAT_ID":55803,"ELEMENT_SET_NO":999,"REV_AT_EPOCH":14689,"BSTAR":-0.00011894756,"MEAN_MOTION_DOT":-3.5e-7,"MEAN_MOTION_DDOT":0},{"OBJECT_NAME":"ONEWEB-0640","OBJECT_ID":"2023-029J","EPOCH":"2026-03-18T03:17:47.624928","MEAN_MOTION":13.1450334,"ECCENTRICITY":0.0001495,"INCLINATION":87.8964,"RA_OF_ASC_NODE":307.9217,"ARG_OF_PERICENTER":110.4928,"MEAN_ANOMALY":249.6362,"EPHEMERIS_TYPE":0,"CLASSIFICATION_TYPE":"U","NORAD_CAT_ID":55804,"ELEMENT_SET_NO":999,"REV_AT_EPOCH":14745,"BSTAR":-0.00016248469,"MEAN_MOTION_DOT":-4.7e-7,"MEAN_MOTION_DDOT":0},{"OBJECT_NAME":"ONEWEB-0641","OBJECT_ID":"2023-029K","EPOCH":"2026-03-18T02:56:53.329344","MEAN_MOTION":13.19725552,"ECCENTRICITY":0.00018102,"INCLINATION":87.922,"RA_OF_ASC_NODE":323.1131,"ARG_OF_PERICENTER":83.3222,"MEAN_ANOMALY":276.8117,"EPHEMERIS_TYPE":0,"CLASSIFICATION_TYPE":"U","NORAD_CAT_ID":55805,"ELEMENT_SET_NO":999,"REV_AT_EPOCH":14690,"BSTAR":-6.8669047e-5,"MEAN_MOTION_DOT":-1.5e-7,"MEAN_MOTION_DDOT":0},{"OBJECT_NAME":"ONEWEB-0642","OBJECT_ID":"2023-029L","EPOCH":"2026-03-18T02:50:04.170048","MEAN_MOTION":13.19724403,"ECCENTRICITY":0.00024954,"INCLINATION":87.9216,"RA_OF_ASC_NODE":323.1286,"ARG_OF_PERICENTER":90.2798,"MEAN_ANOMALY":269.8621,"EPHEMERIS_TYPE":0,"CLASSIFICATION_TYPE":"U","NORAD_CAT_ID":55806,"ELEMENT_SET_NO":999,"REV_AT_EPOCH":14689,"BSTAR":0.00028246157,"MEAN_MOTION_DOT":1.26e-6,"MEAN_MOTION_DDOT":0},{"OBJECT_NAME":"ONEWEB-0643","OBJECT_ID":"2023-029M","EPOCH":"2026-03-18T02:34:24.739392","MEAN_MOTION":13.14503529,"ECCENTRICITY":0.00023109,"INCLINATION":87.8965,"RA_OF_ASC_NODE":307.9148,"ARG_OF_PERICENTER":84.829,"MEAN_ANOMALY":275.3103,"EPHEMERIS_TYPE":0,"CLASSIFICATION_TYPE":"U","NORAD_CAT_ID":55807,"ELEMENT_SET_NO":999,"REV_AT_EPOCH":14742,"BSTAR":8.9094778e-5,"MEAN_MOTION_DOT":4.6e-7,"MEAN_MOTION_DDOT":0},{"OBJECT_NAME":"ONEWEB-0644","OBJECT_ID":"2023-029N","EPOCH":"2026-03-18T02:43:15.142080","MEAN_MOTION":13.19724656,"ECCENTRICITY":0.00020745,"INCLINATION":87.9208,"RA_OF_ASC_NODE":323.1357,"ARG_OF_PERICENTER":85.0588,"MEAN_ANOMALY":275.0782,"EPHEMERIS_TYPE":0,"CLASSIFICATION_TYPE":"U","NORAD_CAT_ID":55808,"ELEMENT_SET_NO":999,"REV_AT_EPOCH":14689,"BSTAR":0.0001244971,"MEAN_MOTION_DOT":6.3e-7,"MEAN_MOTION_DDOT":0},{"OBJECT_NAME":"ONEWEB-0645","OBJECT_ID":"2023-029P","EPOCH":"2026-03-18T03:15:04.946688","MEAN_MOTION":13.19726079,"ECCENTRICITY":0.00019002,"INCLINATION":87.9217,"RA_OF_ASC_NODE":323.1243,"ARG_OF_PERICENTER":96.7057,"MEAN_ANOMALY":263.4292,"EPHEMERIS_TYPE":0,"CLASSIFICATION_TYPE":"U","NORAD_CAT_ID":55809,"ELEMENT_SET_NO":999,"REV_AT_EPOCH":14689,"BSTAR":6.1891261e-5,"MEAN_MOTION_DOT":3.8e-7,"MEAN_MOTION_DDOT":0},{"OBJECT_NAME":"ONEWEB-0646","OBJECT_ID":"2023-029Q","EPOCH":"2026-03-18T03:40:05.769984","MEAN_MOTION":13.19724622,"ECCENTRICITY":0.00020108,"INCLINATION":87.9219,"RA_OF_ASC_NODE":323.1207,"ARG_OF_PERICENTER":84.1992,"MEAN_ANOMALY":275.937,"EPHEMERIS_TYPE":0,"CLASSIFICATION_TYPE":"U","NORAD_CAT_ID":55810,"ELEMENT_SET_NO":999,"REV_AT_EPOCH":14688,"BSTAR":-2.9621429e-5,"MEAN_MOTION_DOT":1.0e-8,"MEAN_MOTION_DDOT":0},{"OBJECT_NAME":"ONEWEB-0648","OBJECT_ID":"2023-029R","EPOCH":"2026-03-18T03:38:21.359040","MEAN_MOTION":13.14503641,"ECCENTRICITY":0.00022963,"INCLINATION":87.8971,"RA_OF_ASC_NODE":307.8714,"ARG_OF_PERICENTER":104.534,"MEAN_ANOMALY":255.6045,"EPHEMERIS_TYPE":0,"CLASSIFICATION_TYPE":"U","NORAD_CAT_ID":55811,"ELEMENT_SET_NO":999,"REV_AT_EPOCH":14743,"BSTAR":0.000480547,"MEAN_MOTION_DOT":1.91e-6,"MEAN_MOTION_DDOT":0},{"OBJECT_NAME":"ONEWEB-0649","OBJECT_ID":"2023-029S","EPOCH":"2026-03-18T02:27:18.716544","MEAN_MOTION":13.19725388,"ECCENTRICITY":0.00018923,"INCLINATION":87.922,"RA_OF_ASC_NODE":323.1277,"ARG_OF_PERICENTER":90.2257,"MEAN_ANOMALY":269.9093,"EPHEMERIS_TYPE":0,"CLASSIFICATION_TYPE":"U","NORAD_CAT_ID":55812,"ELEMENT_SET_NO":999,"REV_AT_EPOCH":14691,"BSTAR":1.25689e-6,"MEAN_MOTION_DOT":1.3e-7,"MEAN_MOTION_DDOT":0},{"OBJECT_NAME":"ONEWEB-0650","OBJECT_ID":"2023-029T","EPOCH":"2026-03-18T02:20:29.400864","MEAN_MOTION":13.19724865,"ECCENTRICITY":0.00021693,"INCLINATION":87.922,"RA_OF_ASC_NODE":323.1317,"ARG_OF_PERICENTER":88.8245,"MEAN_ANOMALY":271.3137,"EPHEMERIS_TYPE":0,"CLASSIFICATION_TYPE":"U","NORAD_CAT_ID":55813,"ELEMENT_SET_NO":999,"REV_AT_EPOCH":14688,"BSTAR":0.00016835621,"MEAN_MOTION_DOT":8.0e-7,"MEAN_MOTION_DDOT":0},{"OBJECT_NAME":"ONEWEB-0652","OBJECT_ID":"2023-029U","EPOCH":"2026-03-18T03:10:56.747136","MEAN_MOTION":13.14503643,"ECCENTRICITY":0.00015847,"INCLINATION":87.8964,"RA_OF_ASC_NODE":307.89,"ARG_OF_PERICENTER":78.7103,"MEAN_ANOMALY":281.4205,"EPHEMERIS_TYPE":0,"CLASSIFICATION_TYPE":"U","NORAD_CAT_ID":55814,"ELEMENT_SET_NO":999,"REV_AT_EPOCH":14740,"BSTAR":-0.00040824991,"MEAN_MOTION_DOT":-1.39e-6,"MEAN_MOTION_DDOT":0},{"OBJECT_NAME":"ONEWEB-0653","OBJECT_ID":"2023-029V","EPOCH":"2026-03-18T02:48:06.475968","MEAN_MOTION":13.14503202,"ECCENTRICITY":0.00014959,"INCLINATION":87.8976,"RA_OF_ASC_NODE":307.8846,"ARG_OF_PERICENTER":84.9149,"MEAN_ANOMALY":275.2151,"EPHEMERIS_TYPE":0,"CLASSIFICATION_TYPE":"U","NORAD_CAT_ID":55815,"ELEMENT_SET_NO":999,"REV_AT_EPOCH":14743,"BSTAR":-0.00025669848,"MEAN_MOTION_DOT":-8.2e-7,"MEAN_MOTION_DDOT":0},{"OBJECT_NAME":"ONEWEB-0654","OBJECT_ID":"2023-029W","EPOCH":"2026-03-18T02:41:15.215424","MEAN_MOTION":13.14503486,"ECCENTRICITY":0.00013496,"INCLINATION":87.8967,"RA_OF_ASC_NODE":307.8843,"ARG_OF_PERICENTER":73.9543,"MEAN_ANOMALY":286.1735,"EPHEMERIS_TYPE":0,"CLASSIFICATION_TYPE":"U","NORAD_CAT_ID":55816,"ELEMENT_SET_NO":999,"REV_AT_EPOCH":14745,"BSTAR":-0.00023699003,"MEAN_MOTION_DOT":-7.5e-7,"MEAN_MOTION_DDOT":0},{"OBJECT_NAME":"ONEWEB-0656","OBJECT_ID":"2023-029X","EPOCH":"2026-03-18T07:06:09.339552","MEAN_MOTION":13.20771082,"ECCENTRICITY":0.0001316,"INCLINATION":87.9159,"RA_OF_ASC_NODE":292.5776,"ARG_OF_PERICENTER":77.2424,"MEAN_ANOMALY":282.8856,"EPHEMERIS_TYPE":0,"CLASSIFICATION_TYPE":"U","NORAD_CAT_ID":55817,"ELEMENT_SET_NO":999,"REV_AT_EPOCH":14915,"BSTAR":2.096416e-6,"MEAN_MOTION_DOT":1.4e-7,"MEAN_MOTION_DDOT":0},{"OBJECT_NAME":"ONEWEB-0657","OBJECT_ID":"2023-029Y","EPOCH":"2026-03-18T02:13:40.881792","MEAN_MOTION":13.19725328,"ECCENTRICITY":0.00019548,"INCLINATION":87.9212,"RA_OF_ASC_NODE":323.1311,"ARG_OF_PERICENTER":60.3375,"MEAN_ANOMALY":299.7953,"EPHEMERIS_TYPE":0,"CLASSIFICATION_TYPE":"U","NORAD_CAT_ID":55818,"ELEMENT_SET_NO":999,"REV_AT_EPOCH":14689,"BSTAR":0.00016131679,"MEAN_MOTION_DOT":7.8e-7,"MEAN_MOTION_DDOT":0},{"OBJECT_NAME":"ONEWEB-0658","OBJECT_ID":"2023-029Z","EPOCH":"2026-03-18T02:06:51.528960","MEAN_MOTION":13.19725578,"ECCENTRICITY":0.00021142,"INCLINATION":87.9225,"RA_OF_ASC_NODE":323.1001,"ARG_OF_PERICENTER":86.1259,"MEAN_ANOMALY":274.0116,"EPHEMERIS_TYPE":0,"CLASSIFICATION_TYPE":"U","NORAD_CAT_ID":55819,"ELEMENT_SET_NO":999,"REV_AT_EPOCH":14690,"BSTAR":1.4890311e-5,"MEAN_MOTION_DOT":1.9e-7,"MEAN_MOTION_DDOT":0}]
