ONEWEB-0639             
1 55803U 23029H   26077.12758563 -.00000035  00000+0 -11895-3 0  9992
2 55803  87.9216 323.1256 0002560  98.3969 261.7454 13.19725371146891
ONEWEB-0640             
1 55804U 23029J   26077.13735677 -.00000047  00000+0 -16248-3 0  9995
2 55804  87.8964 307.9217 0001495 110.4928 249.6362 13.14503340147456
ONEWEB-0641             
1 55805U 23029K   26077.12283946 -.00000015  00000+0 -68669-4 0  9992
2 55805  87.9220 323.1131 0001810  83.3222 276.8117 13.19725552146909
ONEWEB-0642             
1 55806U 23029L   26077.11810382  .00000126  00000+0  28246-3 0  9999
2 55806  87.9216 323.1286 0002495  90.2798 269.8621 13.19724403146895
ONEWEB-0643             
1 55807U 23029M   26077.10723078  .00000046  00000+0  89095-4 0  9995
2 55807  87.8965 307.9148 0002310  84.8290 275.3103 13.14503529147421
ONEWEB-0644             
1 55808U 23029N   26077.11336970  .00000063  00000+0  12450-3 0  9997
2 55808  87.9208 323.1357 0002074  85.0588 275.0782 13.19724656146896
ONEWEB-0645             
1 55809U 23029P   26077.13547392  .00000038  00000+0  61891-4 0  9998
2 55809  87.9217 323.1243 0001900  96.7057 263.4292 13.19726079146896
ONEWEB-0646             
1 55810U 23029Q   26077.15284456  .00000001  00000+0 -29621-4 0  9997
2 55810  87.9219 323.1207 0002010  84.1992 275.9370 13.19724622146888
ONEWEB-0648             
1 55811U 23029R   26077.15163610  .00000191  00000+0  48055-3 0  9996
2 55811  87.8971 307.8714 0002296 104.5340 255.6045 13.14503641147432
ONEWEB-0649             
1 55812U 23029S   26077.10229996  .00000013  00000+0  12569-5 0  9998
2 55812  87.9220 323.1277 0001892  90.2257 269.9093 13.19725388146917
ONEWEB-0650             
1 55813U 23029T   26077.09756251  .00000080  00000+0  16836-3 0  9999
2 55813  87.9220 323.1317 0002169  88.8245 271.3137 13.19724865146882
ONEWEB-0652             
1 55814U 23029U   26077.13260124 -.00000139  00000+0 -40825-3 0  9996
2 55814  87.8964 307.8900 0001584  78.7103 281.4205 13.14503643147406
ONEWEB-0653             
1 55815U 23029V   26077.11674162 -.00000082  00000+0 -25670-3 0  9994
2 55815  87.8976 307.8846 0001495  84.9149 275.2151 13.14503202147434
ONEWEB-0654             
1 55816U 23029W   26077.11198166 -.00000075  00000+0 -23699-3 0  9991
2 55816  87.8967 307.8843 0001349  73.9543 286.1735 13.14503486147451
ONEWEB-0656             
1 55817U 23029X   26077.29594143  .00000014  00000+0  20964-5 0  9991
2 55817  87.9159 292.5776 0001316  77.2424 282.8856 13.20771082149152
ONEWEB-0657             
1 55818U 23029Y   26077.09283428  .00000078  00000+0  16132-3 0  9991
2 55818  87.9212 323.1311 0001954  60.3375 299.7953 13.19725328146898
ONEWEB-0658             
1 55819U 23029Z   26077.08809640  .00000019  00000+0  14890-4 0  9996
2 55819  87.9225 323.1001 0002114  86.1259 274.0116 13.19725578146901
